[{"OBJECT_NAME":"STARLINK-36738","OBJECT_ID":"2026-034R","EPOCH":"2026-03-04T20:00:03.000384","MEAN_MOTION":15.80818884,"ECCENTRICITY":5.41e-5,"INCLINATION":53.1592,"RA_OF_ASC_NODE":235.5626,"ARG_OF_PERICENTER":99.7691,"MEAN_ANOMALY":151.5097,"EPHEMERIS_TYPE":0,"CLASSIFICATION_TYPE":"U","NORAD_CAT_ID":67865,"ELEMENT_SET_NO":999,"REV_AT_EPOCH":308,"BSTAR":0.00057729,"MEAN_MOTION_DOT":0.00114473,"MEAN_MOTION_DDOT":0},{"OBJECT_NAME":"STARLINK-36780","OBJECT_ID":"2026-034S","EPOCH":"2026-03-04T20:00:03.000384","MEAN_MOTION":15.80838868,"ECCENTRICITY":0.0001905,"INCLINATION":53.1595,"RA_OF_ASC_NODE":235.5525,"ARG_OF_PERICENTER":53.6323,"MEAN_ANOMALY":201.9323,"EPHEMERIS_TYPE":0,"CLASSIFICATION_TYPE":"U","NORAD_CAT_ID":67866,"ELEMENT_SET_NO":999,"REV_AT_EPOCH":308,"BSTAR":0.00026588,"MEAN_MOTION_DOT":0.00052013,"MEAN_MOTION_DDOT":0},{"OBJECT_NAME":"STARLINK-36761","OBJECT_ID":"2026-034T","EPOCH":"2026-03-04T20:00:03.000384","MEAN_MOTION":15.80813563,"ECCENTRICITY":7.96e-5,"INCLINATION":53.1595,"RA_OF_ASC_NODE":235.544,"ARG_OF_PERICENTER":108.1079,"MEAN_ANOMALY":151.7226,"EPHEMERIS_TYPE":0,"CLASSIFICATION_TYPE":"U","NORAD_CAT_ID":67867,"ELEMENT_SET_NO":999,"REV_AT_EPOCH":308,"BSTAR":0.00057068,"MEAN_MOTION_DOT":0.00113109,"MEAN_MOTION_DDOT":0},{"OBJECT_NAME":"STARLINK-36762","OBJECT_ID":"2026-034U","EPOCH":"2026-03-04T20:00:03.000384","MEAN_MOTION":15.80839638,"ECCENTRICITY":0.0001327,"INCLINATION":53.1594,"RA_OF_ASC_NODE":235.5356,"ARG_OF_PERICENTER":98.2101,"MEAN_ANOMALY":165.8908,"EPHEMERIS_TYPE":0,"CLASSIFICATION_TYPE":"U","NORAD_CAT_ID":67868,"ELEMENT_SET_NO":999,"REV_AT_EPOCH":308,"BSTAR":0.00029745,"MEAN_MOTION_DOT":0.00058315,"MEAN_MOTION_DDOT":0},{"OBJECT_NAME":"STARLINK-36779","OBJECT_ID":"2026-034V","EPOCH":"2026-03-04T20:00:03.000384","MEAN_MOTION":15.80845722,"ECCENTRICITY":0.000162,"INCLINATION":53.1595,"RA_OF_ASC_NODE":235.5262,"ARG_OF_PERICENTER":67.5906,"MEAN_ANOMALY":200.7825,"EPHEMERIS_TYPE":0,"CLASSIFICATION_TYPE":"U","NORAD_CAT_ID":67869,"ELEMENT_SET_NO":999,"REV_AT_EPOCH":308,"BSTAR":0.00028062,"MEAN_MOTION_DOT":0.00054971,"MEAN_MOTION_DDOT":0},{"OBJECT_NAME":"STARLINK-36770","OBJECT_ID":"2026-034W","EPOCH":"2026-03-04T20:00:03.000384","MEAN_MOTION":15.8085312,"ECCENTRICITY":4.35e-5,"INCLINATION":53.1594,"RA_OF_ASC_NODE":235.5081,"ARG_OF_PERICENTER":50.684,"MEAN_ANOMALY":226.2249,"EPHEMERIS_TYPE":0,"CLASSIFICATION_TYPE":"U","NORAD_CAT_ID":67870,"ELEMENT_SET_NO":999,"REV_AT_EPOCH":308,"BSTAR":0.00026964,"MEAN_MOTION_DOT":0.00052796,"MEAN_MOTION_DDOT":0},{"OBJECT_NAME":"STARLINK-36769","OBJECT_ID":"2026-034X","EPOCH":"2026-03-04T20:00:03.000384","MEAN_MOTION":15.80819395,"ECCENTRICITY":0.0001364,"INCLINATION":53.1595,"RA_OF_ASC_NODE":235.5172,"ARG_OF_PERICENTER":65.9915,"MEAN_ANOMALY":206.6648,"EPHEMERIS_TYPE":0,"CLASSIFICATION_TYPE":"U","NORAD_CAT_ID":67871,"ELEMENT_SET_NO":999,"REV_AT_EPOCH":308,"BSTAR":0.00047183,"MEAN_MOTION_DOT":0.00093204,"MEAN_MOTION_DDOT":0},{"OBJECT_NAME":"STARLINK-36786","OBJECT_ID":"2026-034Y","EPOCH":"2026-03-04T20:00:03.000384","MEAN_MOTION":15.80809098,"ECCENTRICITY":0.000137,"INCLINATION":53.1594,"RA_OF_ASC_NODE":235.4998,"ARG_OF_PERICENTER":63.6748,"MEAN_ANOMALY":217.5318,"EPHEMERIS_TYPE":0,"CLASSIFICATION_TYPE":"U","NORAD_CAT_ID":67872,"ELEMENT_SET_NO":999,"REV_AT_EPOCH":308,"BSTAR":0.00057629,"MEAN_MOTION_DOT":0.00114219,"MEAN_MOTION_DDOT":0},{"OBJECT_NAME":"STARLINK-36783","OBJECT_ID":"2026-034Z","EPOCH":"2026-03-04T20:00:03.000384","MEAN_MOTION":15.8083663,"ECCENTRICITY":0.0001148,"INCLINATION":53.1595,"RA_OF_ASC_NODE":235.4903,"ARG_OF_PERICENTER":118.1914,"MEAN_ANOMALY":167.2718,"EPHEMERIS_TYPE":0,"CLASSIFICATION_TYPE":"U","NORAD_CAT_ID":67873,"ELEMENT_SET_NO":999,"REV_AT_EPOCH":308,"BSTAR":0.00030607,"MEAN_MOTION_DOT":0.00060029,"MEAN_MOTION_DDOT":0},{"OBJECT_NAME":"STARLINK-36730","OBJECT_ID":"2026-034AA","EPOCH":"2026-03-04T20:00:03.000384","MEAN_MOTION":15.80841409,"ECCENTRICITY":0.0001236,"INCLINATION":53.1593,"RA_OF_ASC_NODE":235.4818,"ARG_OF_PERICENTER":68.3915,"MEAN_ANOMALY":221.3382,"EPHEMERIS_TYPE":0,"CLASSIFICATION_TYPE":"U","NORAD_CAT_ID":67874,"ELEMENT_SET_NO":999,"REV_AT_EPOCH":308,"BSTAR":0.00035285,"MEAN_MOTION_DOT":0.00069401,"MEAN_MOTION_DDOT":0},{"OBJECT_NAME":"STARLINK-36727","OBJECT_ID":"2026-034AB","EPOCH":"2026-03-04T20:00:03.000384","MEAN_MOTION":15.808321,"ECCENTRICITY":6.5e-5,"INCLINATION":53.1595,"RA_OF_ASC_NODE":235.4727,"ARG_OF_PERICENTER":73.0033,"MEAN_ANOMALY":221.013,"EPHEMERIS_TYPE":0,"CLASSIFICATION_TYPE":"U","NORAD_CAT_ID":67875,"ELEMENT_SET_NO":999,"REV_AT_EPOCH":308,"BSTAR":0.00029659,"MEAN_MOTION_DOT":0.00058123,"MEAN_MOTION_DDOT":0},{"OBJECT_NAME":"STARLINK-36743","OBJECT_ID":"2026-034AC","EPOCH":"2026-03-04T20:00:03.000384","MEAN_MOTION":15.80805978,"ECCENTRICITY":0.0001526,"INCLINATION":53.1597,"RA_OF_ASC_NODE":235.4633,"ARG_OF_PERICENTER":148.2534,"MEAN_ANOMALY":150.0386,"EPHEMERIS_TYPE":0,"CLASSIFICATION_TYPE":"U","NORAD_CAT_ID":67876,"ELEMENT_SET_NO":999,"REV_AT_EPOCH":308,"BSTAR":0.00059255,"MEAN_MOTION_DOT":0.00117491,"MEAN_MOTION_DDOT":0},{"OBJECT_NAME":"STARLINK-36784","OBJECT_ID":"2026-034AD","EPOCH":"2026-03-04T20:00:03.000384","MEAN_MOTION":15.80727893,"ECCENTRICITY":5.12e-5,"INCLINATION":53.1596,"RA_OF_ASC_NODE":235.4548,"ARG_OF_PERICENTER":63.547,"MEAN_ANOMALY":239.0661,"EPHEMERIS_TYPE":0,"CLASSIFICATION_TYPE":"U","NORAD_CAT_ID":67877,"ELEMENT_SET_NO":999,"REV_AT_EPOCH":308,"BSTAR":0.0011413,"MEAN_MOTION_DOT":0.002291,"MEAN_MOTION_DDOT":0},{"OBJECT_NAME":"STARLINK-36689","OBJECT_ID":"2026-034AE","EPOCH":"2026-03-04T20:00:03.000384","MEAN_MOTION":15.80835539,"ECCENTRICITY":0.0001295,"INCLINATION":53.1593,"RA_OF_ASC_NODE":235.4463,"ARG_OF_PERICENTER":81.5184,"MEAN_ANOMALY":225.2913,"EPHEMERIS_TYPE":0,"CLASSIFICATION_TYPE":"U","NORAD_CAT_ID":67878,"ELEMENT_SET_NO":999,"REV_AT_EPOCH":308,"BSTAR":0.00042331,"MEAN_MOTION_DOT":0.00083516,"MEAN_MOTION_DDOT":0},{"OBJECT_NAME":"STARLINK-36818","OBJECT_ID":"2026-035A","EPOCH":"2026-03-04T20:00:03.000384","MEAN_MOTION":15.98023796,"ECCENTRICITY":0.0001145,"INCLINATION":97.2773,"RA_OF_ASC_NODE":355.7911,"ARG_OF_PERICENTER":86.2401,"MEAN_ANOMALY":346.362,"EPHEMERIS_TYPE":0,"CLASSIFICATION_TYPE":"U","NORAD_CAT_ID":67879,"ELEMENT_SET_NO":999,"REV_AT_EPOCH":297,"BSTAR":-0.0022508,"MEAN_MOTION_DOT":-0.01018004,"MEAN_MOTION_DDOT":0.00033145},{"OBJECT_NAME":"STARLINK-36821","OBJECT_ID":"2026-035B","EPOCH":"2026-03-04T20:00:03.000384","MEAN_MOTION":15.98183153,"ECCENTRICITY":0.0001064,"INCLINATION":97.2768,"RA_OF_ASC_NODE":355.7941,"ARG_OF_PERICENTER":88.5119,"MEAN_ANOMALY":350.6672,"EPHEMERIS_TYPE":0,"CLASSIFICATION_TYPE":"U","NORAD_CAT_ID":67880,"ELEMENT_SET_NO":999,"REV_AT_EPOCH":297,"BSTAR":-0.0022458,"MEAN_MOTION_DOT":-0.01024675,"MEAN_MOTION_DDOT":0.00033607}]
