STARLINK-36738          
1 67865U 26034R   26063.83336806  .00114473  00000+0  57729-3 0  9993
2 67865  53.1592 235.5626 0000541  99.7691 151.5097 15.80818884  3089
STARLINK-36780          
1 67866U 26034S   26063.83336806  .00052013  00000+0  26588-3 0  9994
2 67866  53.1595 235.5525 0001905  53.6323 201.9323 15.80838868  3083
STARLINK-36761          
1 67867U 26034T   26063.83336806  .00113109  00000+0  57068-3 0  9996
2 67867  53.1595 235.5440 0000796 108.1079 151.7226 15.80813563  3080
STARLINK-36762          
1 67868U 26034U   26063.83336806  .00058315  00000+0  29745-3 0  9995
2 67868  53.1594 235.5356 0001327  98.2101 165.8908 15.80839638  3086
STARLINK-36779          
1 67869U 26034V   26063.83336806  .00054971  00000+0  28062-3 0  9991
2 67869  53.1595 235.5262 0001620  67.5906 200.7825 15.80845722  3080
STARLINK-36770          
1 67870U 26034W   26063.83336806  .00052796  00000+0  26964-3 0  9995
2 67870  53.1594 235.5081 0000435  50.6840 226.2249 15.80853120  3087
STARLINK-36769          
1 67871U 26034X   26063.83336806  .00093204  00000+0  47183-3 0  9991
2 67871  53.1595 235.5172 0001364  65.9915 206.6648 15.80819395  3085
STARLINK-36786          
1 67872U 26034Y   26063.83336806  .00114219  00000+0  57629-3 0  9998
2 67872  53.1594 235.4998 0001370  63.6748 217.5318 15.80809098  3080
STARLINK-36783          
1 67873U 26034Z   26063.83336806  .00060029  00000+0  30607-3 0  9995
2 67873  53.1595 235.4903 0001148 118.1914 167.2718 15.80836630  3089
STARLINK-36730          
1 67874U 26034AA  26063.83336806  .00069401  00000+0  35285-3 0  9996
2 67874  53.1593 235.4818 0001236  68.3915 221.3382 15.80841409  3087
STARLINK-36727          
1 67875U 26034AB  26063.83336806  .00058123  00000+0  29659-3 0  9994
2 67875  53.1595 235.4727 0000650  73.0033 221.0130 15.80832100  3088
STARLINK-36743          
1 67876U 26034AC  26063.83336806  .00117491  00000+0  59255-3 0  9994
2 67876  53.1597 235.4633 0001526 148.2534 150.0386 15.80805978  3088
STARLINK-36784          
1 67877U 26034AD  26063.83336806  .00229100  00000+0  11413-2 0  9999
2 67877  53.1596 235.4548 0000512  63.5470 239.0661 15.80727893  3088
STARLINK-36689          
1 67878U 26034AE  26063.83336806  .00083516  00000+0  42331-3 0  9993
2 67878  53.1593 235.4463 0001295  81.5184 225.2913 15.80835539  3087
STARLINK-36818          
1 67879U 26035A   26063.83336806 -.01018004  33145-3 -22508-2 0  9991
2 67879  97.2773 355.7911 0001145  86.2401 346.3620 15.98023796  2979
STARLINK-36821          
1 67880U 26035B   26063.83336806 -.01024675  33607-3 -22458-2 0  9991
2 67880  97.2768 355.7941 0001064  88.5119 350.6672 15.98183153  2978
